start=new Date('2022-12-10T00:00:00.000Z').valueOf();
sats=[{"OBJECT_NAME":"STARLINK-2027","RA_OF_ASC_NODE":"327.1644","MEAN_MOTION_DDOT":"0.0000000000000","OBJECT_TYPE":"PAYLOAD","NORAD_CAT_ID":"47645","MEAN_MOTION":"15.06397475","ELEMENT_SET_NO":"999","CENTER_NAME":"EARTH","COUNTRY_CODE":"US","MEAN_ELEMENT_THEORY":"SGP4","DECAY_DATE":null,"ARG_OF_PERICENTER":"50.0642","MEAN_MOTION_DOT":"-0.00007554","OBJECT_ID":"2021-012AB","REV_AT_EPOCH":"10108","PERIAPSIS":"546.160","INCLINATION":"53.0543","REF_FRAME":"TEME","PERIOD":"95.592","TIME_SYSTEM":"UTC","CLASSIFICATION_TYPE":"U","ECCENTRICITY":"0.00015320","EPHEMERIS_TYPE":"0","GP_ID":"219847178","SEMIMAJOR_AXIS":"6925.356","SITE":"AFETR","LAUNCH_DATE":"2021-02-16","BSTAR":"-0.00048878000000","TLE_LINE2":"2 47645  53.0543 327.1644 0001532  50.0642 310.0481 15.06397475101087","FILE":"3685358","RCS_SIZE":"LARGE","TLE_LINE1":"1 47645U 21012AB  22343.43746618 -.00007554  00000-0 -48878-3 0  9996","APOAPSIS":"548.282","EPOCH":"2022-12-09T10:29:57.077952","MEAN_ANOMALY":"310.0481"},{"COUNTRY_CODE":"US","CENTER_NAME":"EARTH","MEAN_ELEMENT_THEORY":"SGP4","MEAN_MOTION":"15.06398711","ELEMENT_SET_NO":"999","MEAN_MOTION_DOT":"0.00001264","DECAY_DATE":null,"ARG_OF_PERICENTER":"52.8619","OBJECT_NAME":"STARLINK-2028","RA_OF_ASC_NODE":"292.5154","MEAN_MOTION_DDOT":"0.0000000000000","NORAD_CAT_ID":"47646","OBJECT_TYPE":"PAYLOAD","INCLINATION":"53.0544","REF_FRAME":"TEME","OBJECT_ID":"2021-012AC","PERIAPSIS":"545.970","REV_AT_EPOCH":"10206","SEMIMAJOR_AXIS":"6925.353","GP_ID":"219839930","SITE":"AFETR","PERIOD":"95.592","CLASSIFICATION_TYPE":"U","ECCENTRICITY":"0.00018020","EPHEMERIS_TYPE":"0","TIME_SYSTEM":"UTC","MEAN_ANOMALY":"307.2535","TLE_LINE2":"2 47646  53.0544 292.5154 0001802  52.8619 307.2535 15.06398711102065","BSTAR":"0.00010374000000","LAUNCH_DATE":"2021-02-16","APOAPSIS":"548.465","TLE_LINE1":"1 47646U 21012AC  22343.35776253  .00001264  00000-0  10374-3 0  9996","EPOCH":"2022-12-09T08:35:10.682592","FILE":"3685263","RCS_SIZE":"LARGE"},{"TLE_LINE1":"1 47647U 21012AD  22342.76382476  .00002561  00000-0  19072-3 0  9996","APOAPSIS":"548.120","EPOCH":"2022-12-08T18:19:54.459264","RCS_SIZE":"LARGE","FILE":"3684670","BSTAR":"0.00019072000000","TLE_LINE2":"2 47647  53.0571 359.9482 0001356  56.1551 303.9567 15.06410610100579","LAUNCH_DATE":"2021-02-16","MEAN_ANOMALY":"303.9567","EPHEMERIS_TYPE":"0","CLASSIFICATION_TYPE":"U","ECCENTRICITY":"0.00013560","TIME_SYSTEM":"UTC","PERIOD":"95.591","SITE":"AFETR","GP_ID":"219780498","SEMIMAJOR_AXIS":"6925.316","PERIAPSIS":"546.242","REV_AT_EPOCH":"10057","OBJECT_ID":"2021-012AD","REF_FRAME":"TEME","INCLINATION":"53.0571","OBJECT_TYPE":"PAYLOAD","NORAD_CAT_ID":"47647","MEAN_MOTION_DDOT":"0.0000000000000","RA_OF_ASC_NODE":"359.9482","OBJECT_NAME":"STARLINK-2030","MEAN_MOTION_DOT":"0.00002561","ARG_OF_PERICENTER":"56.1551","DECAY_DATE":null,"MEAN_ELEMENT_THEORY":"SGP4","CENTER_NAME":"EARTH","COUNTRY_CODE":"US","ELEMENT_SET_NO":"999","MEAN_MOTION":"15.06410610"},{"MEAN_MOTION":"15.06419816","ELEMENT_SET_NO":"999","MEAN_ELEMENT_THEORY":"SGP4","COUNTRY_CODE":"US","CENTER_NAME":"EARTH","DECAY_DATE":null,"ARG_OF_PERICENTER":"23.7313","MEAN_MOTION_DOT":"-0.00010957","OBJECT_NAME":"STARLINK-2031","NORAD_CAT_ID":"47648","OBJECT_TYPE":"PAYLOAD","RA_OF_ASC_NODE":"336.7167","MEAN_MOTION_DDOT":"0.0000000000000","REF_FRAME":"TEME","INCLINATION":"53.0564","OBJECT_ID":"2021-012AE","REV_AT_EPOCH":"10096","PERIAPSIS":"546.083","GP_ID":"219848506","SEMIMAJOR_AXIS":"6925.288","SITE":"AFETR","PERIOD":"95.591","TIME_SYSTEM":"UTC","EPHEMERIS_TYPE":"0","ECCENTRICITY":"0.00015450","CLASSIFICATION_TYPE":"U","MEAN_ANOMALY":"336.3747","LAUNCH_DATE":"2021-02-16","BSTAR":"-0.00071741000000","TLE_LINE2":"2 47648  53.0564 336.7167 0001545  23.7313 336.3747 15.06419816100961","RCS_SIZE":"MEDIUM","FILE":"3685439","EPOCH":"2022-12-09T11:37:35.421600","TLE_LINE1":"1 47648U 21012AE  22343.48443775 -.00010957  00000-0 -71741-3 0  9998","APOAPSIS":"548.223"},{"MEAN_ANOMALY":"37.4305","LAUNCH_DATE":"2021-02-16","TLE_LINE2":"2 47649  53.0566 337.5968 0001832 322.6557  37.4305 15.06335375101453","BSTAR":"-0.00038773000000","RCS_SIZE":"LARGE","FILE":"3685263","APOAPSIS":"548.680","TLE_LINE1":"1 47649U 21012AF  22343.28912999 -.00006042  00000-0 -38773-3 0  9994","EPOCH":"2022-12-09T06:56:20.831136","GP_ID":"219841683","SEMIMAJOR_AXIS":"6925.547","SITE":"AFETR","PERIOD":"95.596","TIME_SYSTEM":"UTC","EPHEMERIS_TYPE":"0","ECCENTRICITY":"0.00018320","CLASSIFICATION_TYPE":"U","REF_FRAME":"TEME","INCLINATION":"53.0566","OBJECT_ID":"2021-012AF","REV_AT_EPOCH":"10145","PERIAPSIS":"546.143","MEAN_MOTION":"15.06335375","ELEMENT_SET_NO":"999","MEAN_ELEMENT_THEORY":"SGP4","COUNTRY_CODE":"US","CENTER_NAME":"EARTH","ARG_OF_PERICENTER":"322.6557","DECAY_DATE":null,"MEAN_MOTION_DOT":"-0.00006042","OBJECT_NAME":"STARLINK-2032","OBJECT_TYPE":"PAYLOAD","NORAD_CAT_ID":"47649","MEAN_MOTION_DDOT":"0.0000000000000","RA_OF_ASC_NODE":"337.5968"},{"MEAN_MOTION_DOT":"0.00002430","ARG_OF_PERICENTER":"52.3302","DECAY_DATE":null,"COUNTRY_CODE":"US","CENTER_NAME":"EARTH","MEAN_ELEMENT_THEORY":"SGP4","MEAN_MOTION":"15.06410080","ELEMENT_SET_NO":"999","MEAN_MOTION_DDOT":"0.0000000000000","RA_OF_ASC_NODE":"337.0628","OBJECT_TYPE":"PAYLOAD","NORAD_CAT_ID":"47650","OBJECT_NAME":"STARLINK-2033","INCLINATION":"53.0533","REF_FRAME":"TEME","PERIAPSIS":"546.139","REV_AT_EPOCH":"10145","OBJECT_ID":"2021-012AG","SITE":"AFETR","GP_ID":"219840431","SEMIMAJOR_AXIS":"6925.318","ECCENTRICITY":"0.00015070","CLASSIFICATION_TYPE":"U","EPHEMERIS_TYPE":"0","TIME_SYSTEM":"UTC","PERIOD":"95.592","MEAN_ANOMALY":"307.7824","APOAPSIS":"548.226","TLE_LINE1":"1 47650U 21012AG  22343.40702727  .00002430  00000-0  18191-3 0  9993","EPOCH":"2022-12-09T09:46:07.156128","FILE":"3685263","RCS_SIZE":"LARGE","TLE_LINE2":"2 47650  53.0533 337.0628 0001507  52.3302 307.7824 15.06410080101457","BSTAR":"0.00018191000000","LAUNCH_DATE":"2021-02-16"},{"INCLINATION":"53.0543","REF_FRAME":"TEME","PERIAPSIS":"545.742","REV_AT_EPOCH":"10068","OBJECT_ID":"2021-012AH","MEAN_MOTION_DOT":"-0.00000210","ARG_OF_PERICENTER":"40.5658","DECAY_DATE":null,"CENTER_NAME":"EARTH","COUNTRY_CODE":"US","MEAN_ELEMENT_THEORY":"SGP4","ELEMENT_SET_NO":"999","MEAN_MOTION":"15.06379542","MEAN_MOTION_DDOT":"0.0000000000000","RA_OF_ASC_NODE":"356.6380","OBJECT_TYPE":"PAYLOAD","NORAD_CAT_ID":"47651","OBJECT_NAME":"STARLINK-2035","MEAN_ANOMALY":"319.5495","TLE_LINE1":"1 47651U 21012AH  22343.51210381 -.00000210  00000-0  48413-5 0  9993","APOAPSIS":"548.811","EPOCH":"2022-12-09T12:17:25.769184","FILE":"3685372","RCS_SIZE":"LARGE","TLE_LINE2":"2 47651  53.0543 356.6380 0002216  40.5658 319.5495 15.06379542100688","BSTAR":"0.00000484130000","LAUNCH_DATE":"2021-02-16","SITE":"AFETR","SEMIMAJOR_AXIS":"6925.411","GP_ID":"219846705","ECCENTRICITY":"0.00022160","CLASSIFICATION_TYPE":"U","EPHEMERIS_TYPE":"0","TIME_SYSTEM":"UTC","PERIOD":"95.593"},{"NORAD_CAT_ID":"47652","OBJECT_TYPE":"PAYLOAD","RA_OF_ASC_NODE":"357.3707","MEAN_MOTION_DDOT":"0.0000000000000","OBJECT_NAME":"STARLINK-2036","MEAN_MOTION_DOT":"0.00002663","DECAY_DATE":null,"ARG_OF_PERICENTER":"52.4386","MEAN_ELEMENT_THEORY":"SGP4","COUNTRY_CODE":"US","CENTER_NAME":"EARTH","ELEMENT_SET_NO":"999","MEAN_MOTION":"15.06404575","PERIAPSIS":"545.939","REV_AT_EPOCH":"10117","OBJECT_ID":"2021-012AJ","REF_FRAME":"TEME","INCLINATION":"53.0567","EPHEMERIS_TYPE":"0","CLASSIFICATION_TYPE":"U","ECCENTRICITY":"0.00018200","TIME_SYSTEM":"UTC","PERIOD":"95.592","SITE":"AFETR","SEMIMAJOR_AXIS":"6925.335","GP_ID":"219841433","TLE_LINE1":"1 47652U 21012AJ  22343.33514862  .00002663  00000-0  19757-3 0  9995","EPOCH":"2022-12-09T08:02:36.840768","APOAPSIS":"548.460","RCS_SIZE":"LARGE","FILE":"3685263","TLE_LINE2":"2 47652  53.0567 357.3707 0001820  52.4386 307.6768 15.06404575101177","BSTAR":"0.00019757000000","LAUNCH_DATE":"2021-02-16","MEAN_ANOMALY":"307.6768"},{"INCLINATION":"53.0558","REF_FRAME":"TEME","PERIAPSIS":"546.466","REV_AT_EPOCH":"10095","OBJECT_ID":"2021-012AK","MEAN_MOTION_DOT":"-0.00001736","DECAY_DATE":null,"ARG_OF_PERICENTER":"22.3279","CENTER_NAME":"EARTH","COUNTRY_CODE":"US","MEAN_ELEMENT_THEORY":"SGP4","MEAN_MOTION":"15.06379377","ELEMENT_SET_NO":"999","MEAN_MOTION_DDOT":"0.0000000000000","RA_OF_ASC_NODE":"336.8118","OBJECT_TYPE":"PAYLOAD","NORAD_CAT_ID":"47653","OBJECT_NAME":"STARLINK-2037","MEAN_ANOMALY":"337.7761","APOAPSIS":"548.088","TLE_LINE1":"1 47653U 21012AK  22343.46233065 -.00001736  00000-0 -97752-4 0  9997","EPOCH":"2022-12-09T11:05:45.368160","FILE":"3685359","RCS_SIZE":"LARGE","TLE_LINE2":"2 47653  53.0558 336.8118 0001171  22.3279 337.7761 15.06379377100955","BSTAR":"-0.00009775200000","LAUNCH_DATE":"2021-02-16","SITE":"AFETR","SEMIMAJOR_AXIS":"6925.412","GP_ID":"219846720","CLASSIFICATION_TYPE":"U","ECCENTRICITY":"0.00011710","EPHEMERIS_TYPE":"0","TIME_SYSTEM":"UTC","PERIOD":"95.593"},{"MEAN_ANOMALY":"321.2582","TLE_LINE2":"2 47654  53.0558 357.9684 0002117  38.8559 321.2582 15.06395592100633","BSTAR":"0.00019713000000","LAUNCH_DATE":"2021-02-16","EPOCH":"2022-12-09T04:56:50.931456","TLE_LINE1":"1 47654U 21012AL  22343.20614504  .00002655  00000-0  19713-3 0  9990","APOAPSIS":"548.693","FILE":"3685359","RCS_SIZE":"LARGE","SEMIMAJOR_AXIS":"6925.362","GP_ID":"219847206","SITE":"AFETR","PERIOD":"95.592","ECCENTRICITY":"0.00021170","CLASSIFICATION_TYPE":"U","EPHEMERIS_TYPE":"0","TIME_SYSTEM":"UTC","INCLINATION":"53.0558","REF_FRAME":"TEME","OBJECT_ID":"2021-012AL","PERIAPSIS":"545.761","REV_AT_EPOCH":"10063","CENTER_NAME":"EARTH","COUNTRY_CODE":"US","MEAN_ELEMENT_THEORY":"SGP4","ELEMENT_SET_NO":"999","MEAN_MOTION":"15.06395592","MEAN_MOTION_DOT":"0.00002655","DECAY_DATE":null,"ARG_OF_PERICENTER":"38.8559","OBJECT_NAME":"STARLINK-2038","RA_OF_ASC_NODE":"357.9684","MEAN_MOTION_DDOT":"0.0000000000000","NORAD_CAT_ID":"47654","OBJECT_TYPE":"PAYLOAD"}];
